{
  "type": "FeatureCollection",
  "features": [
    {
      "type": "Feature",
      "properties": {
        "norad_id": 34784,
        "name": "COSMOS 2251 DEB",
        "group": "cosmos-2251-debris",
        "lat": 12.249123980564335,
        "lon": -39.18360010805778,
        "alt_km": 704.794526209268,
        "timestamp": "2025-12-16T10:53:45.866235+00:00",
        "meta_object_name": "COSMOS 2251 DEB",
        "meta_object_id": "1993-036AAM",
        "meta_epoch": "2025-12-15T21:41:19.154688",
        "meta_mean_motion": 14.60794779,
        "meta_eccentricity": 0.00493178,
        "meta_inclination": 74.0072,
        "meta_ra_of_asc_node": 318.2994,
        "meta_arg_of_pericenter": 126.6986,
        "meta_mean_anomaly": 233.8726,
        "meta_ephemeris_type": 0,
        "meta_classification_type": "U",
        "meta_norad_cat_id": 34784,
        "meta_element_set_no": 999,
        "meta_rev_at_epoch": 88581,
        "meta_bstar": 0.00037402456,
        "meta_mean_motion_dot": 1.827e-05,
        "meta_mean_motion_ddot": 0,
        "tle_line1": "1 34784U 93036AAM 25349.90369392  .00001827  00000+0  37402-3 0  9997",
        "tle_line2": "2 34784  74.0072 318.2994 0049317 126.6986 233.8726 14.60794779885811"
      },
      "geometry": {
        "type": "Point",
        "coordinates": [
          -39.18360010805778,
          12.249123980564335
        ]
      }
    },
    {
      "type": "Feature",
      "properties": {
        "norad_id": 34790,
        "name": "COSMOS 2251 DEB",
        "group": "cosmos-2251-debris",
        "lat": 17.016443922881933,
        "lon": -117.96095422378625,
        "alt_km": 796.5164788185857,
        "timestamp": "2025-12-16T10:53:45.866245+00:00",
        "meta_object_name": "COSMOS 2251 DEB",
        "meta_object_id": "1993-036AAT",
        "meta_epoch": "2025-12-15T18:17:52.991232",
        "meta_mean_motion": 14.24645912,
        "meta_eccentricity": 0.01006995,
        "meta_inclination": 74.054,
        "meta_ra_of_asc_node": 238.2639,
        "meta_arg_of_pericenter": 299.2645,
        "meta_mean_anomaly": 131.8928,
        "meta_ephemeris_type": 0,
        "meta_classification_type": "U",
        "meta_norad_cat_id": 34790,
        "meta_element_set_no": 999,
        "meta_rev_at_epoch": 86616,
        "meta_bstar": 0.00058946462,
        "meta_mean_motion_dot": 1.418e-05,
        "meta_mean_motion_ddot": 0,
        "tle_line1": "1 34790U 93036AAT 25349.76241888  .00001418  00000+0  58946-3 0  9999",
        "tle_line2": "2 34790  74.0540 238.2639 0100699 299.2645 131.8928 14.24645912866167"
      },
      "geometry": {
        "type": "Point",
        "coordinates": [
          -117.96095422378625,
          17.016443922881933
        ]
      }
    },
    {
      "type": "Feature",
      "properties": {
        "norad_id": 34792,
        "name": "COSMOS 2251 DEB",
        "group": "cosmos-2251-debris",
        "lat": 22.532808286684755,
        "lon": 169.48891220046443,
        "alt_km": 710.764443245399,
        "timestamp": "2025-12-16T10:53:45.866255+00:00",
        "meta_object_name": "COSMOS 2251 DEB",
        "meta_object_id": "1993-036AAV",
        "meta_epoch": "2025-12-15T22:20:01.680864",
        "meta_mean_motion": 14.55982991,
        "meta_eccentricity": 0.00124602,
        "meta_inclination": 74.0171,
        "meta_ra_of_asc_node": 163.6528,
        "meta_arg_of_pericenter": 257.8537,
        "meta_mean_anomaly": 263.1783,
        "meta_ephemeris_type": 0,
        "meta_classification_type": "U",
        "meta_norad_cat_id": 34792,
        "meta_element_set_no": 999,
        "meta_rev_at_epoch": 87696,
        "meta_bstar": 0.00072187947,
        "meta_mean_motion_dot": 3.151e-05,
        "meta_mean_motion_ddot": 0,
        "tle_line1": "1 34792U 93036AAV 25349.93057501  .00003151  00000+0  72188-3 0  9997",
        "tle_line2": "2 34792  74.0171 163.6528 0012460 257.8537 263.1783 14.55982991876967"
      },
      "geometry": {
        "type": "Point",
        "coordinates": [
          169.48891220046443,
          22.532808286684755
        ]
      }
    },
    {
      "type": "Feature",
      "properties": {
        "norad_id": 34793,
        "name": "COSMOS 2251 DEB",
        "group": "cosmos-2251-debris",
        "lat": -64.52924612381628,
        "lon": -153.5260192198215,
        "alt_km": 779.9167199968842,
        "timestamp": "2025-12-16T10:53:45.866265+00:00",
        "meta_object_name": "COSMOS 2251 DEB",
        "meta_object_id": "1993-036AAW",
        "meta_epoch": "2025-12-15T18:47:32.243712",
        "meta_mean_motion": 14.38649701,
        "meta_eccentricity": 0.00504274,
        "meta_inclination": 74.0025,
        "meta_ra_of_asc_node": 244.7448,
        "meta_arg_of_pericenter": 38.0769,
        "meta_mean_anomaly": 18.8403,
        "meta_ephemeris_type": 0,
        "meta_classification_type": "U",
        "meta_norad_cat_id": 34793,
        "meta_element_set_no": 999,
        "meta_rev_at_epoch": 87374,
        "meta_bstar": 0.00024157175,
        "meta_mean_motion_dot": 7.25e-06,
        "meta_mean_motion_ddot": 0,
        "tle_line1": "1 34793U 93036AAW 25349.78301208  .00000725  00000+0  24157-3 0  9994",
        "tle_line2": "2 34793  74.0025 244.7448 0050427  38.0769  18.8403 14.38649701873746"
      },
      "geometry": {
        "type": "Point",
        "coordinates": [
          -153.5260192198215,
          -64.52924612381628
        ]
      }
    },
    {
      "type": "Feature",
      "properties": {
        "norad_id": 34796,
        "name": "COSMOS 2251 DEB",
        "group": "cosmos-2251-debris",
        "lat": 20.573983007885463,
        "lon": 23.210466117997694,
        "alt_km": 792.3615793246909,
        "timestamp": "2025-12-16T10:53:45.866275+00:00",
        "meta_object_name": "COSMOS 2251 DEB",
        "meta_object_id": "1993-036AAZ",
        "meta_epoch": "2025-12-15T20:57:59.815872",
        "meta_mean_motion": 14.48706583,
        "meta_eccentricity": 0.01002779,
        "meta_inclination": 74.0299,
        "meta_ra_of_asc_node": 210.4689,
        "meta_arg_of_pericenter": 311.8419,
        "meta_mean_anomaly": 61.4285,
        "meta_ephemeris_type": 0,
        "meta_classification_type": "U",
        "meta_norad_cat_id": 34796,
        "meta_element_set_no": 999,
        "meta_rev_at_epoch": 88073,
        "meta_bstar": 0.00041688974,
        "meta_mean_motion_dot": 1.644e-05,
        "meta_mean_motion_ddot": 0,
        "tle_line1": "1 34796U 93036AAZ 25349.87360898  .00001644  00000+0  41689-3 0  9997",
        "tle_line2": "2 34796  74.0299 210.4689 0100277 311.8419  61.4285 14.48706583880734"
      },
      "geometry": {
        "type": "Point",
        "coordinates": [
          23.210466117997694,
          20.573983007885463
        ]
      }
    },
    {
      "type": "Feature",
      "properties": {
        "norad_id": 34797,
        "name": "COSMOS 2251 DEB",
        "group": "cosmos-2251-debris",
        "lat": -23.189686348373055,
        "lon": -79.86478048638384,
        "alt_km": 703.1252917323982,
        "timestamp": "2025-12-16T10:53:45.866285+00:00",
        "meta_object_name": "COSMOS 2251 DEB",
        "meta_object_id": "1993-036ABA",
        "meta_epoch": "2025-12-15T17:18:40.740768",
        "meta_mean_motion": 14.428735,
        "meta_eccentricity": 0.00715183,
        "meta_inclination": 73.9779,
        "meta_ra_of_asc_node": 94.4289,
        "meta_arg_of_pericenter": 207.3849,
        "meta_mean_anomaly": 152.3532,
        "meta_ephemeris_type": 0,
        "meta_classification_type": "U",
        "meta_norad_cat_id": 34797,
        "meta_element_set_no": 999,
        "meta_rev_at_epoch": 87458,
        "meta_bstar": 0.0015954878,
        "meta_mean_motion_dot": 5.472e-05,
        "meta_mean_motion_ddot": 0,
        "tle_line1": "1 34797U 93036ABA 25349.72130487  .00005472  00000+0  15955-2 0  9990",
        "tle_line2": "2 34797  73.9779  94.4289 0071518 207.3849 152.3532 14.42873500874582"
      },
      "geometry": {
        "type": "Point",
        "coordinates": [
          -79.86478048638384,
          -23.189686348373055
        ]
      }
    },
    {
      "type": "Feature",
      "properties": {
        "norad_id": 34814,
        "name": "COSMOS 2251 DEB",
        "group": "cosmos-2251-debris",
        "lat": 66.48445108667266,
        "lon": 96.94919062205678,
        "alt_km": 768.6182370922788,
        "timestamp": "2025-12-16T10:53:45.866295+00:00",
        "meta_object_name": "COSMOS 2251 DEB",
        "meta_object_id": "1993-036ABD",
        "meta_epoch": "2025-12-15T06:16:46.279200",
        "meta_mean_motion": 14.36906963,
        "meta_eccentricity": 0.00560142,
        "meta_inclination": 73.8956,
        "meta_ra_of_asc_node": 320.7607,
        "meta_arg_of_pericenter": 209.789,
        "meta_mean_anomaly": 212.7208,
        "meta_ephemeris_type": 0,
        "meta_classification_type": "U",
        "meta_norad_cat_id": 34814,
        "meta_element_set_no": 999,
        "meta_rev_at_epoch": 87369,
        "meta_bstar": 0.00061236247,
        "meta_mean_motion_dot": 1.818e-05,
        "meta_mean_motion_ddot": 0,
        "tle_line1": "1 34814U 93036ABD 25349.26164675  .00001818  00000+0  61236-3 0  9999",
        "tle_line2": "2 34814  73.8956 320.7607 0056014 209.7890 212.7208 14.36906963873698"
      },
      "geometry": {
        "type": "Point",
        "coordinates": [
          96.94919062205678,
          66.48445108667266
        ]
      }
    }
  ]
}